{
  "type": "FeatureCollection",
  "features": [
    {
      "type": "Feature",
      "properties": {
        "norad_id": 30299,
        "name": "FENGYUN 1C DEB",
        "group": "fengyun-1c-debris",
        "lat": 30.163462191412588,
        "lon": -106.50315065742201,
        "alt_km": 938.131952301339,
        "timestamp": "2025-12-21T20:41:08.236542+00:00",
        "meta_object_name": "FENGYUN 1C DEB",
        "meta_object_id": "1999-025ZL",
        "meta_epoch": "2025-12-21T11:30:23.876928",
        "meta_mean_motion": 14.07788266,
        "meta_eccentricity": 0.0103097,
        "meta_inclination": 99.0935,
        "meta_ra_of_asc_node": 67.7711,
        "meta_arg_of_pericenter": 343.1381,
        "meta_mean_anomaly": 28.671,
        "meta_ephemeris_type": 0,
        "meta_classification_type": "U",
        "meta_norad_cat_id": 30299,
        "meta_element_set_no": 999,
        "meta_rev_at_epoch": 96413,
        "meta_bstar": 0.00116659,
        "meta_mean_motion_dot": 2.029e-05,
        "meta_mean_motion_ddot": 0,
        "tle_line1": "1 30299U 99025ZL  25355.47944302  .00002029  00000+0  11666-2 0  9995",
        "tle_line2": "2 30299  99.0935  67.7711 0103097 343.1381  28.6710 14.07788266964138"
      },
      "geometry": {
        "type": "Point",
        "coordinates": [
          -106.50315065742201,
          30.163462191412588
        ]
      }
    },
    {
      "type": "Feature",
      "properties": {
        "norad_id": 30300,
        "name": "FENGYUN 1C DEB",
        "group": "fengyun-1c-debris",
        "lat": -47.286647716102564,
        "lon": -124.42787206958708,
        "alt_km": 766.8578586692847,
        "timestamp": "2025-12-21T20:41:08.236551+00:00",
        "meta_object_name": "FENGYUN 1C DEB",
        "meta_object_id": "1999-025ZM",
        "meta_epoch": "2025-12-19T03:48:05.188896",
        "meta_mean_motion": 14.26899681,
        "meta_eccentricity": 0.00756002,
        "meta_inclination": 99.0404,
        "meta_ra_of_asc_node": 62.7103,
        "meta_arg_of_pericenter": 275.4697,
        "meta_mean_anomaly": 113.2793,
        "meta_ephemeris_type": 0,
        "meta_classification_type": "U",
        "meta_norad_cat_id": 30300,
        "meta_element_set_no": 999,
        "meta_rev_at_epoch": 97076,
        "meta_bstar": 0.0016293339,
        "meta_mean_motion_dot": 4.032e-05,
        "meta_mean_motion_ddot": 0,
        "tle_line1": "1 30300U 99025ZM  25353.15839339  .00004032  00000+0  16293-2 0  9991",
        "tle_line2": "2 30300  99.0404  62.7103 0075600 275.4697 113.2793 14.26899681970760"
      },
      "geometry": {
        "type": "Point",
        "coordinates": [
          -124.42787206958708,
          -47.286647716102564
        ]
      }
    },
    {
      "type": "Feature",
      "properties": {
        "norad_id": 30301,
        "name": "FENGYUN 1C DEB",
        "group": "fengyun-1c-debris",
        "lat": 12.128177463167246,
        "lon": -30.87395138390743,
        "alt_km": 719.5872174553897,
        "timestamp": "2025-12-21T20:41:08.236560+00:00",
        "meta_object_name": "FENGYUN 1C DEB",
        "meta_object_id": "1999-025ZN",
        "meta_epoch": "2025-12-19T15:39:00.595872",
        "meta_mean_motion": 14.5320034,
        "meta_eccentricity": 0.00691998,
        "meta_inclination": 98.6346,
        "meta_ra_of_asc_node": 144.9792,
        "meta_arg_of_pericenter": 268.5803,
        "meta_mean_anomaly": 225.6832,
        "meta_ephemeris_type": 0,
        "meta_classification_type": "U",
        "meta_norad_cat_id": 30301,
        "meta_element_set_no": 999,
        "meta_rev_at_epoch": 97317,
        "meta_bstar": 0.0027328574,
        "meta_mean_motion_dot": 0.00011654,
        "meta_mean_motion_ddot": 0,
        "tle_line1": "1 30301U 99025ZN  25353.65209023  .00011654  00000+0  27329-2 0  9998",
        "tle_line2": "2 30301  98.6346 144.9792 0069199 268.5803 225.6832 14.53200340973174"
      },
      "geometry": {
        "type": "Point",
        "coordinates": [
          -30.87395138390743,
          12.128177463167246
        ]
      }
    },
    {
      "type": "Feature",
      "properties": {
        "norad_id": 30302,
        "name": "FENGYUN 1C DEB",
        "group": "fengyun-1c-debris",
        "lat": 31.720545288183658,
        "lon": -102.18263250231794,
        "alt_km": 808.0608032804848,
        "timestamp": "2025-12-21T20:41:08.236569+00:00",
        "meta_object_name": "FENGYUN 1C DEB",
        "meta_object_id": "1999-025ZP",
        "meta_epoch": "2025-12-21T00:08:21.553728",
        "meta_mean_motion": 14.12863052,
        "meta_eccentricity": 0.01055559,
        "meta_inclination": 98.5542,
        "meta_ra_of_asc_node": 262.3375,
        "meta_arg_of_pericenter": 93.8721,
        "meta_mean_anomaly": 267.4528,
        "meta_ephemeris_type": 0,
        "meta_classification_type": "U",
        "meta_norad_cat_id": 30302,
        "meta_element_set_no": 999,
        "meta_rev_at_epoch": 96160,
        "meta_bstar": 0.0013252255,
        "meta_mean_motion_dot": 2.559e-05,
        "meta_mean_motion_ddot": 0,
        "tle_line1": "1 30302U 99025ZP  25355.00580502  .00002559  00000+0  13252-2 0  9998",
        "tle_line2": "2 30302  98.5542 262.3375 0105555  93.8721 267.4528 14.12863052961600"
      },
      "geometry": {
        "type": "Point",
        "coordinates": [
          -102.18263250231794,
          31.720545288183658
        ]
      }
    },
    {
      "type": "Feature",
      "properties": {
        "norad_id": 30303,
        "name": "FENGYUN 1C DEB",
        "group": "fengyun-1c-debris",
        "lat": 45.164711674098776,
        "lon": 64.23610682702169,
        "alt_km": 849.1636514731872,
        "timestamp": "2025-12-21T20:41:08.236578+00:00",
        "meta_object_name": "FENGYUN 1C DEB",
        "meta_object_id": "1999-025ZQ",
        "meta_epoch": "2025-12-19T04:28:26.075424",
        "meta_mean_motion": 14.25895485,
        "meta_eccentricity": 0.00769653,
        "meta_inclination": 99.0208,
        "meta_ra_of_asc_node": 70.677,
        "meta_arg_of_pericenter": 263.8432,
        "meta_mean_anomaly": 95.3974,
        "meta_ephemeris_type": 0,
        "meta_classification_type": "U",
        "meta_norad_cat_id": 30303,
        "meta_element_set_no": 999,
        "meta_rev_at_epoch": 97127,
        "meta_bstar": 0.0017896087,
        "meta_mean_motion_dot": 4.351e-05,
        "meta_mean_motion_ddot": 0,
        "tle_line1": "1 30303U 99025ZQ  25353.18641291  .00004351  00000+0  17896-2 0  9999",
        "tle_line2": "2 30303  99.0208  70.6770 0076965 263.8432  95.3974 14.25895485971271"
      },
      "geometry": {
        "type": "Point",
        "coordinates": [
          64.23610682702169,
          45.164711674098776
        ]
      }
    },
    {
      "type": "Feature",
      "properties": {
        "norad_id": 30304,
        "name": "FENGYUN 1C DEB",
        "group": "fengyun-1c-debris",
        "lat": -42.54577943721157,
        "lon": -119.98402253817737,
        "alt_km": 896.7594615306489,
        "timestamp": "2025-12-21T20:41:08.236586+00:00",
        "meta_object_name": "FENGYUN 1C DEB",
        "meta_object_id": "1999-025ZR",
        "meta_epoch": "2025-12-18T10:12:26.700192",
        "meta_mean_motion": 14.15523113,
        "meta_eccentricity": 0.00734007,
        "meta_inclination": 99.0328,
        "meta_ra_of_asc_node": 64.9301,
        "meta_arg_of_pericenter": 32.7527,
        "meta_mean_anomaly": 327.8165,
        "meta_ephemeris_type": 0,
        "meta_classification_type": "U",
        "meta_norad_cat_id": 30304,
        "meta_element_set_no": 999,
        "meta_rev_at_epoch": 96899,
        "meta_bstar": 0.0011981926,
        "meta_mean_motion_dot": 2.359e-05,
        "meta_mean_motion_ddot": 0,
        "tle_line1": "1 30304U 99025ZR  25352.42530903  .00002359  00000+0  11982-2 0  9999",
        "tle_line2": "2 30304  99.0328  64.9301 0073400  32.7527 327.8165 14.15523113968995"
      },
      "geometry": {
        "type": "Point",
        "coordinates": [
          -119.98402253817737,
          -42.54577943721157
        ]
      }
    },
    {
      "type": "Feature",
      "properties": {
        "norad_id": 30305,
        "name": "FENGYUN 1C DEB",
        "group": "fengyun-1c-debris",
        "lat": -62.56994696547936,
        "lon": -48.3159839048937,
        "alt_km": 1193.2044004119998,
        "timestamp": "2025-12-21T20:41:08.236595+00:00",
        "meta_object_name": "FENGYUN 1C DEB",
        "meta_object_id": "1999-025ZS",
        "meta_epoch": "2025-12-21T14:47:33.867744",
        "meta_mean_motion": 13.6023503,
        "meta_eccentricity": 0.02658466,
        "meta_inclination": 98.5886,
        "meta_ra_of_asc_node": 294.54,
        "meta_arg_of_pericenter": 77.9156,
        "meta_mean_anomaly": 98.5196,
        "meta_ephemeris_type": 0,
        "meta_classification_type": "U",
        "meta_norad_cat_id": 30305,
        "meta_element_set_no": 999,
        "meta_rev_at_epoch": 93894,
        "meta_bstar": 0.00029387665,
        "meta_mean_motion_dot": 2.44e-06,
        "meta_mean_motion_ddot": 0,
        "tle_line1": "1 30305U 99025ZS  25355.61636421  .00000244  00000+0  29388-3 0  9997",
        "tle_line2": "2 30305  98.5886 294.5400 0265846  77.9156  98.5196 13.60235030938941"
      },
      "geometry": {
        "type": "Point",
        "coordinates": [
          -48.3159839048937,
          -62.56994696547936
        ]
      }
    }
  ]
}